#aV2024 11 21  0  0  0.00000000     288 DD+AD WGS84 FIT  NGA
## 2341 345600.00000000   300.00000000 60635 0.0000000000000
+   31     2  3  4  5  6  7  8  9 10 11 12 13 14 15 16 17 18
+         19 20 21 22 23 24 25 26 27 28 29 30 31 32  0  0  0
+          0  0  0  0  0  0  0  0  0  0  0  0  0  0  0  0  0
+          0  0  0  0  0  0  0  0  0  0  0  0  0  0  0  0  0
+          0  0  0  0  0  0  0  0  0  0  0  0  0  0  0  0  0
++         2  2  2  2  2  2  2  2  2  2  2  2  2  2  2  2  2
++         2  2  2  2  2  2  2  2  2  2  2  2  2  2  0  0  0
++         0  0  0  0  0  0  0  0  0  0  0  0  0  0  0  0  0
++         0  0  0  0  0  0  0  0  0  0  0  0  0  0  0  0  0
++         0  0  0  0  0  0  0  0  0  0  0  0  0  0  0  0  0
%c cc cc ccc ccc cccc cccc cccc cccc ccccc ccccc ccccc ccccc
%c cc cc ccc ccc cccc cccc cccc cccc ccccc ccccc ccccc ccccc
%f  0.0000000  0.000000000  0.00000000000  0.000000000000000
%f  0.0000000  0.000000000  0.00000000000  0.000000000000000
%i    0    0    0    0      0      0      0      0         0
%i    0    0    0    0      0      0      0      0         0
/*      NGA, ST. LOUIS,MO.                                  
/*   EPHEMERIS COMPUTED FROM 2 DAYS OF DATA                 
/*   EPOCHA v9 SMOOTHER                                     
/*   G2296 IERS2010 SATIGS SATAPC                           
*  2024 11 21  3 50  0.00000000
P  2  20919.863078  10493.559805  13366.172584   -309.860273                    
V  2   9037.151533  13379.840080 -25204.829276      0.086285                    
P  3  15906.030145  -1214.709407  21048.003763    605.335156                    
V  3 -10860.469163  24797.728117   9668.941719      0.099362                    
P  4  26404.476393    886.934911   3455.883575    482.997983                    
V  4  -4200.670734   2736.597928  31372.968146      0.064214                    
P  5  -8867.468454 -14866.418799 -20303.995208   -193.637203                    
V  5  10363.193048 -23171.611235  12611.795662     -0.011619                    
P  6  -1717.905723 -21156.664152  15966.221327   -130.720403                    
V  6  12472.029138  15855.312105  22562.693746     -0.295135                    
P  7  15124.037252  -4486.397529 -20890.712942    -18.993402                    
V  7  15654.427411  22919.812569   5809.230850      0.020082                    
P  8  21558.975623   7365.782127 -14136.869671    419.057811                    
V  8 -17180.976137   4313.152477 -23719.264029      0.099748                    
P  9  25039.541008  -6986.595518  -5703.870629    453.033222                    
V  9   7378.477286   1830.887793  30585.428015      0.171066                    
P 10  -9957.387458  24365.987014   1869.355587   -203.798754                    
V 10  -2935.391844    969.133737 -32437.245335     -0.146308                    
P 11 -11907.187365 -23480.487556   3794.334737   -750.878340                    
V 11   4724.172097   2627.402571  31344.147317     -0.013597                    
P 12 -14687.122594  -4291.221919  21423.250489   -553.437008                    
V 12  13029.462621 -24650.323642   3989.605572     -0.024601                    
P 13 -13975.835454 -13370.623932 -18541.895336    686.874713                    
V 13  22976.359512     24.414817 -17325.910138      0.015616                    
P 14  12851.108778 -23003.156396  -2055.064751    544.172814                    
V 14   1981.580622   3954.457262 -31406.285814      0.079991                    
P 15 -22272.383912  -5074.773359 -14198.823866    230.265287                    
V 15  16019.664503  -6615.853183 -23493.511279      0.045479                    
P 16   3971.057196  18925.334639 -18352.241639   -123.051239                    
V 16 -12747.277745  18941.844562  17544.876943      0.097469                    
P 17  14001.668235 -13369.401092  18684.149393    550.607067                    
V 17  22816.444268    457.641681 -16966.566957     -0.148275                    
P 18 -13363.223208   6803.200482 -21902.545829   -660.510046                    
V 18 -15580.918965 -23058.733340   2120.275276     -0.002404                    
P 19   2593.865034 -14941.585067  21633.315762    565.166155                    
V 19  27824.427771    778.438863  -3200.602673      0.043923                    
P 20  -2621.725059 -23611.052663 -11943.585602    368.556825                    
V 20   6113.906391 -14170.929355  26352.302833     -0.003285                    
P 21  20753.728441  15804.981067   7821.666803     96.950334                    
V 21   4656.540118   8027.704875 -29032.707652     -0.009355                    
P 22   8713.282286 -24481.713581   6624.915262    -80.955806                    
V 22   5967.373820  -5601.959134 -30068.599732     -0.028023                    
P 23 -15983.536722  17540.844874 -11649.344659    367.571158                    
V 23   4037.559036 -14482.184827 -27478.552091      0.079012                    
P 24 -21022.680582 -12587.156676  10274.013208   -479.009745                    
V 24  -6666.980543 -12274.540526 -27045.057927      0.023592                    
P 25 -17478.827591  10687.434093  16407.081175    498.844437                    
V 25   6550.305951 -20747.521280  20326.968587     -0.002995                    
P 26  -2273.212391  24921.299733  -8472.910266     18.991522                    
V 26  -7144.228421   8784.480874  28722.935335     -0.132126                    
P 27  11495.966772  13193.333753 -20399.131755    -34.654612                    
V 27 -24913.207819   3343.351190 -11630.197956      0.001403                    
P 28    429.983522  20341.876047  17056.642622   -485.328916                    
V 28 -14467.663746 -16251.693846  19731.664574     -0.115681                    
P 29 -25800.211025   4041.485182  -5241.804937   -562.185768                    
V 29  -6613.141211  -2274.324695  30923.570610      0.029665                    
P 30   6815.237395 -15853.594446 -19977.085641   -277.640156                    
V 30  16118.162961  20268.045132 -10774.590410      0.078623                    
P 31   8811.497354  23396.893717   8147.242440   -221.396697                    
V 31  -8658.416276  -7179.310066  29478.100547      0.006686                    
P 32  -9973.025386  14855.850642  19783.661438   -570.787297                    
V 32 -24696.118645   1297.563550 -13776.714544      0.054427                    
EOF
